OBJECT_NAME,OBJECT_ID,EPOCH,MEAN_MOTION,ECCENTRICITY,INCLINATION,RA_OF_ASC_NODE,ARG_OF_PERICENTER,MEAN_ANOMALY,EPHEMERIS_TYPE,CLASSIFICATION_TYPE,NORAD_CAT_ID,ELEMENT_SET_NO,REV_AT_EPOCH,BSTAR,MEAN_MOTION_DOT,MEAN_MOTION_DDOT
MERIDIAN 10,2022-030A,2026-07-06T21:48:32.213088,2.00610764,.67892947,62.6807,138.6604,272.8458,17.6292,0,U,52145,999,3142,0,.207E-5,0
OMNI-L1,2022-033A,2026-07-07T18:15:36.772128,14.82828478,.0004683,97.8387,267.5390,201.7692,158.3324,0,U,52157,999,23050,.19149E-3,.1498E-4,0
ENMAP,2022-033C,2026-07-07T20:33:18.309024,14.74937208,.0001357,97.9786,270.8129,76.0643,284.0716,0,U,52159,999,22970,.47482E-4,.269E-5,0
ARCSAT-1,2022-033E,2026-07-07T17:35:33.124128,15.54135081,.0006343,97.2747,281.3183,117.7151,242.4747,0,U,52161,999,23889,.18341E-3,.11827E-3,0
GLOBAL-18,2022-034B,2026-07-06T21:35:03.701760,15.46973117,.00041105,52.9802,162.3799,1.2196,358.8819,0,U,52196,999,24001,.27699361E-3,.13792E-3,0
GAOFEN-3 03,2022-035A,2026-07-07T20:02:18.378816,14.42217073,.0001699,98.4067,197.1155,94.0405,266.0979,0,U,52200,999,22382,-.30387E-4,-.144E-5,0
DAQI-1,2022-039A,2026-07-07T21:00:40.074912,14.57690219,.0003389,98.1482,127.2999,168.4128,191.7150,0,U,52257,999,22495,.45439E-4,.162E-5,0
BRO-6,2022-047AE,2026-07-07T20:15:31.476384,15.52123878,.0003216,97.3388,280.3167,350.9006,9.2188,0,U,52422,999,23435,.47752E-3,.28824E-3,0
JILIN-1 GAOFEN 3D27,2022-048B,2026-07-07T18:22:09.712416,15.81053565,.000437,97.5719,304.6531,263.4759,96.6011,0,U,52444,999,23272,.62444E-3,.122551E-2,0
JILIN-1 GAOFEN 3D28,2022-048C,2026-07-07T18:44:38.196960,15.85424228,.0003902,97.5647,304.9219,254.8039,105.2800,0,U,52445,999,23278,.69886E-3,.16918E-2,0
VIGORIDE-3,2022-057AE,2026-07-07T11:02:50.599104,15.27496624,.00094066,97.6629,328.9772,59.0692,301.1470,0,U,52760,999,22825,.14882791E-3,.3929E-4,0
ION SCV-006,2022-057AF,2026-07-07T08:46:16.507776,15.45790767,.00175226,97.6124,337.9647,45.1724,315.0945,0,U,52761,999,22923,.18685705E-3,.9005E-4,0
SHERPA-AC1,2022-057AH,2026-07-07T09:17:32.862624,15.36556356,.00079204,97.6711,338.4619,30.7687,329.4019,0,U,52763,999,22880,.15350071E-3,.5394E-4,0
OMNI-L2,2022-057AR,2026-07-07T17:22:25.576896,14.81425718,.0005155,97.4705,249.7017,251.2259,108.8395,0,U,52771,999,22343,.15582E-3,.1172E-4,0
STEP CUBE LAB-II,2022-065D,2026-07-07T20:30:35.305056,14.63337689,.0007861,98.2259,332.6957,328.4577,31.6153,0,U,52897,999,21452,.1901E-3,.934E-5,0
RANDEV,2022-065E,2026-07-07T20:24:15.661728,14.63726085,.0007187,98.2245,333.0522,329.6133,30.4652,0,U,52898,999,21427,.20492E-3,.1019E-4,0
SNUGLITE-II,2022-065F,2026-07-07T09:26:17.805696,14.64384965,.00066378,98.2227,333.1908,328.9485,31.1324,0,U,52899,999,21395,.1644015E-3,.82E-5,0
MIMAN,2022-065G,2026-07-07T15:37:08.859936,14.61866390,.0006814,98.2289,331.0330,330.8988,29.1832,0,U,52900,999,21343,.1036E-3,.47E-5,0
STARLINK-4362,2022-077A,2026-07-07T11:15:18.836064,15.05650729,.00014377,97.2842,6.3483,89.2202,270.9191,0,U,53043,999,21893,-.8659224E-5,-.181E-5,0
LARES-2,2022-080A,2026-07-06T17:36:42.503328,6.38965057,.00052813,70.1565,298.6253,331.1813,28.8535,0,U,53105,999,9291,0,-.14E-6,0
GREENCUBE (IO-117),2022-080E,2026-07-07T06:16:24.697344,6.42583238,.00089686,70.1426,291.2647,285.4121,74.5548,0,U,53109,999,9335,0,-.3E-7,0
STARLINK-4410,2022-084R,2026-07-07T20:00:04.000032,15.41975264,.0001318,97.5991,250.5880,80.6669,121.7110,0,U,53204,999,573,-.8066E-5,-.433E-5,0
COSMOS 2558,2022-089A,2026-07-07T18:19:56.697024,15.80033205,.0003341,97.2235,293.7352,240.3640,119.7296,0,U,53323,999,22107,.58294E-3,.108997E-2,0
TECMS,2022-090A,2026-07-07T03:39:31.049280,15.21550377,.00050721,97.3127,255.6979,120.7850,239.3886,0,U,53346,999,21784,.14277484E-3,.315E-4,0
DONGPO 02,2022-098J,2026-07-07T20:46:26.078304,15.79501098,.0004297,97.5544,321.9240,232.0439,128.0440,0,U,53452,999,21805,.58267E-3,.106354E-2,0
DONGPO 01,2022-098K,2026-07-07T21:18:51.922944,15.76726221,.0002705,97.5604,322.4140,218.3981,141.7092,0,U,53453,999,21801,.54693E-3,.88008E-3,0
STARLINK-4400,2022-099D,2026-07-07T18:43:54.856992,15.05656618,.000172,97.2832,306.7233,120.9988,239.1409,0,U,53468,999,21404,-.84815E-4,-.128E-4,0
STARLINK-4621,2022-105AE,2026-07-06T15:40:59.421792,15.05670962,.00016864,97.2850,65.6743,108.2706,251.8706,0,U,53676,999,21113,-.43659617E-3,-.6353E-4,0
SHERPA-LTC2,2022-107BG,2026-07-06T07:03:55.037664,14.69869542,.03927297,53.2364,139.4369,279.7236,75.9603,0,U,53754,999,20535,.21892845E-3,.4157E-4,0
