MERIDIAN 10             
1 52145U 22030A   26187.90870617  .00000207  00000+0  00000+0 0  9993
2 52145  62.6807 138.6604 6789294 272.8458  17.6292  2.00610764 31420
OMNI-L1                 
1 52157U 22033A   26188.76084227  .00001498  00000+0  19149-3 0  9999
2 52157  97.8387 267.5390 0004683 201.7692 158.3324 14.82828478230502
ENMAP                   
1 52159U 22033C   26188.85646191  .00000269  00000+0  47482-4 0  9992
2 52159  97.9786 270.8129 0001357  76.0643 284.0716 14.74937208229704
ARCSAT-1                
1 52161U 22033E   26188.73302227  .00011827  00000+0  18341-3 0  9994
2 52161  97.2747 281.3183 0006343 117.7151 242.4747 15.54135081238891
GLOBAL-18               
1 52196U 22034B   26187.89934840  .00013792  00000+0  27699-3 0  9990
2 52196  52.9802 162.3799 0004110   1.2196 358.8819 15.46973117240016
GAOFEN-3 03             
1 52200U 22035A   26188.83493494 -.00000144  00000+0 -30387-4 0  9995
2 52200  98.4067 197.1155 0001699  94.0405 266.0979 14.42217073223828
DAQI-1                  
1 52257U 22039A   26188.87546383  .00000162  00000+0  45439-4 0  9993
2 52257  98.1482 127.2999 0003389 168.4128 191.7150 14.57690219224957
BRO-6                   
1 52422U 22047AE  26188.84411431  .00028824  00000+0  47752-3 0  9992
2 52422  97.3388 280.3167 0003216 350.9006   9.2188 15.52123878234354
JILIN-1 GAOFEN 3D27     
1 52444U 22048B   26188.76539019  .00122551  00000+0  62444-3 0  9998
2 52444  97.5719 304.6531 0004370 263.4759  96.6011 15.81053565232729
JILIN-1 GAOFEN 3D28     
1 52445U 22048C   26188.78099765  .00169180  00000+0  69886-3 0  9996
2 52445  97.5647 304.9219 0003902 254.8039 105.2800 15.85424228232782
VIGORIDE-3              
1 52760U 22057AE  26188.46030786  .00003929  00000+0  14883-3 0  9994
2 52760  97.6629 328.9772 0009406  59.0692 301.1470 15.27496624228250
ION SCV-006             
1 52761U 22057AF  26188.36546884  .00009005  00000+0  18686-3 0  9991
2 52761  97.6124 337.9647 0017522  45.1724 315.0945 15.45790767229237
SHERPA-AC1              
1 52763U 22057AH  26188.38718591  .00005394  00000+0  15350-3 0  9993
2 52763  97.6711 338.4619 0007920  30.7687 329.4019 15.36556356228802
OMNI-L2                 
1 52771U 22057AR  26188.72390714  .00001172  00000+0  15582-3 0  9990
2 52771  97.4705 249.7017 0005155 251.2259 108.8395 14.81425718223437
STEP CUBE LAB-II        
1 52897U 22065D   26188.85457529  .00000934  00000+0  19010-3 0  9995
2 52897  98.2259 332.6957 0007861 328.4577  31.6153 14.63337689214524
RANDEV                  
1 52898U 22065E   26188.85018127  .00001019  00000+0  20492-3 0  9994
2 52898  98.2245 333.0522 0007187 329.6133  30.4652 14.63726085214270
SNUGLITE-II             
1 52899U 22065F   26188.39326164  .00000820  00000+0  16440-3 0  9994
2 52899  98.2227 333.1908 0006637 328.9485  31.1324 14.64384965213957
MIMAN                   
1 52900U 22065G   26188.65079699  .00000470  00000+0  10360-3 0  9990
2 52900  98.2289 331.0330 0006814 330.8988  29.1832 14.61866390213439
STARLINK-4362           
1 53043U 22077A   26188.46896801 -.00000181  00000+0 -86592-5 0  9996
2 53043  97.2842   6.3483 0001437  89.2202 270.9191 15.05650729218933
LARES-2                 
1 53105U 22080A   26187.73382527 -.00000014  00000+0  00000+0 0  9991
2 53105  70.1565 298.6253 0005281 331.1813  28.8535  6.38965057 92912
GREENCUBE (IO-117)      
1 53109U 22080E   26188.26139696 -.00000003  00000+0  00000+0 0  9999
2 53109  70.1426 291.2647 0008968 285.4121  74.5548  6.42583238 93359
STARLINK-4410           
1 53204U 22084R   26188.83337963 -.00000433  00000+0 -80660-5 0  9993
2 53204  97.5991 250.5880 0001318  80.6669 121.7110 15.41975264  5734
COSMOS 2558             
1 53323U 22089A   26188.76385066  .00108997  00000+0  58294-3 0  9997
2 53323  97.2235 293.7352 0003341 240.3640 119.7296 15.80033205221071
TECMS                   
1 53346U 22090A   26188.15244270  .00003150  00000+0  14277-3 0  9996
2 53346  97.3127 255.6979 0005072 120.7850 239.3886 15.21550377217849
DONGPO 02               
1 53452U 22098J   26188.86557961  .00106354  00000+0  58267-3 0  9991
2 53452  97.5544 321.9240 0004297 232.0439 128.0440 15.79501098218051
DONGPO 01               
1 53453U 22098K   26188.88810096  .00088008  00000+0  54693-3 0  9999
2 53453  97.5604 322.4140 0002705 218.3981 141.7092 15.76726221218010
STARLINK-4400           
1 53468U 22099D   26188.78049603 -.00001280  00000+0 -84815-4 0  9992
2 53468  97.2832 306.7233 0001720 120.9988 239.1409 15.05656618214042
STARLINK-4621           
1 53676U 22105AE  26187.65346553 -.00006353  00000+0 -43660-3 0  9998
2 53676  97.2850  65.6743 0001686 108.2706 251.8706 15.05670962211134
SHERPA-LTC2             
1 53754U 22107BG  26187.29438701  .00004157  00000+0  21893-3 0  9996
2 53754  53.2364 139.4369 0392729 279.7236  75.9603 14.69869542205351
